{"spkid": "50546766", "covariance": {"epoch": "2459351.5", "labels": ["e", "q", "tp", "node", "peri", "i"], "elements": [{"sigma": 7.02582045419832e-07, "name": "e", "units": null, "title": "eccentricity", "value": ".6326086159495101", "label": "e"}, {"title": "perihelion distance", "value": ".7303657093772224", "units": "au", "sigma": 1.39702306675423e-06, "name": "q", "label": "q"}, {"label": "tp", "units": "TDB", "value": "2459499.135287334519", "title": "time of perihelion passage", "name": "tp", "sigma": 9.29267861379688e-05}, {"label": "node", "sigma": 0.00487929182353094, "name": "om", "title": "longitude of the ascending node", "value": "227.3477039417081", "units": "deg"}, {"sigma": 0.00484184512050095, "name": "w", "title": "argument of perihelion", "value": "50.8990120605695", "units": "deg", "label": "peri"}, {"label": "i", "title": "inclination", "value": ".4501071168911859", "units": "deg", "sigma": 4.06271385135918e-05, "name": "i"}], "data": [["4.936215305463145E-13", "-9.815223716404205E-13", "-1.104130591919319E-11", "6.306620251808464E-10", "-7.398672555808287E-10", "-4.949398597491488E-12"], ["-9.815223716404205E-13", "1.951673449043398E-12", "2.18919698004939E-11", "-1.251718025298218E-9", "1.468811461193263E-9", "9.830079184425815E-12"], ["-1.104130591919319E-11", "2.18919698004939E-11", "8.635387581931797E-9", "3.401851641294279E-7", "-3.300201710667789E-7", "-3.057956110169444E-9"], ["6.306620251808464E-10", "-1.251718025298218E-9", "3.401851641294279E-7", "2.380748869917584E-5", "-2.360983141259538E-5", "-1.966508399332225E-7"], ["-7.398672555808287E-10", "1.468811461193263E-9", "-3.300201710667789E-7", "-2.360983141259538E-5", "2.344346417091881E-5", "1.947501960914037E-7"], ["-4.949398597491488E-12", "9.830079184425815E-12", "-3.057956110169444E-9", "-1.966508399332225E-7", "1.947501960914037E-7", "1.650564383802575E-9"]]}, "elements": [{"label": "e", "name": "e", "sigma": "6.9521E-7", "title": "eccentricity", "value": ".6319680293100183", "units": null}, {"label": "a", "title": "semi-major axis", "value": "1.996254571938844", "units": "au", "name": "a", "sigma": "8.133E-8"}, {"name": "q", "sigma": "1.3721E-6", "units": "au", "title": "perihelion distance", "value": ".7346855041095387", "label": "q"}, {"title": "inclination; angle with respect to x-y ecliptic plane", "value": ".4588727345291789", "units": "deg", "sigma": "4.2214E-5", "name": "i", "label": "i"}, {"sigma": ".0046463", "name": "om", "units": "deg", "title": "longitude of the ascending node", "value": "224.7920002896882", "label": "node"}, {"label": "peri", "title": "argument of perihelion", "value": "53.68402737074044", "units": "deg", "sigma": ".0046061", "name": "w"}, {"label": "M", "name": "ma", "sigma": "4.528E-5", "units": "deg", "title": "mean anomaly", "value": "236.7821202815797"}, {"label": "tp", "title": "time of perihelion passage", "value": "2461553.109121878366", "units": "TDB", "sigma": ".00014632", "name": "tp"}, {"sigma": "6.2958E-5", "name": "per", "units": "d", "value": "1030.201819462368", "title": "sidereal orbital period", "label": "period"}, {"title": "mean motion", "value": ".349446092211207", "units": "deg/d", "name": "n", "sigma": "2.1355E-8", "label": "n"}, {"label": "Q", "units": "au", "title": "aphelion distance", "value": "3.257823639768149", "name": "ad", "sigma": "1.3273E-7"}], "epoch": "2461200.5"}